ORBCOMM FM115           
1 41186U 15081H   25202.82238452  .00000354  00000+0  10356-3 0  9999
2 41186  46.9971 234.8270 0001700 251.0837 108.9866 14.62543689512844
ORBCOMM FM108           
1 41187U 15081J   25202.56702048  .00000624  00000+0  17053-3 0  9999
2 41187  47.0058 304.6082 0001897 133.3100 226.7944 14.58196023511893
ORBCOMM FM117           
1 41188U 15081K   25202.46470993  .00000583  00000+0  16167-3 0  9999
2 41188  47.0020 303.8419 0002607 140.1318 219.9759 14.58199694511845
ORBCOMM FM116           
1 41189U 15081L   25202.86333385  .00000533  00000+0  15076-3 0  9990
2 41189  47.0031  31.7947 0002096 308.1098  51.9598 14.58271182510784
